COSMOS 2433 [GLONASS-M] 
1 32275U 07052A   26063.27119741 -.00000054  00000+0  00000+0 0  9990
2 32275  65.6349 319.4662 0002068 271.3708  88.6643  2.13103860142825
COSMOS 2432 [GLONASS-M] 
1 32276U 07052B   26062.91914729 -.00000053  00000+0  00000+0 0  9999
2 32276  65.6511 319.6039 0010630 330.1271  64.0556  2.13102981142846
COSMOS 2434 [GLONASS-M] 
1 32393U 07065A   26062.24563601 -.00000008  00000+0  00000+0 0  9998
2 32393  64.3184 195.4861 0003829  70.2306 113.3410  2.13101160141512
COSMOS 2436 [GLONASS-M] 
1 32395U 07065C   26063.04733503  .00000000  00000+0  00000+0 0  9990
2 32395  64.3269 195.5300 0017530   7.4777 203.8673  2.13099973141485
COSMOS 2456 [GLONASS-M] 
1 36111U 09070A   26062.42573193  .00000019  00000+0  00000+0 0  9996
2 36111  64.9483  74.5788 0006300 305.6154 173.6630  2.13103384126178
COSMOS 2457 [GLONASS-M] 
1 36112U 09070B   26063.51655917  .00000009  00000+0  00000+0 0  9992
2 36112  64.9344  74.3876 0002178 196.4363 168.0672  2.13100837126206
COSMOS 2460 [GLONASS-M] 
1 36402U 10007C   26063.07006766 -.00000051  00000+0  00000+0 0  9997
2 36402  65.4801 318.0258 0001792  14.3302   8.4003  2.13106010124499
COSMOS 2476 [GLONASS-M] 
1 37867U 11064A   26063.36294003  .00000014  00000+0  00000+0 0  9990
2 37867  65.2092  76.4094 0025181 241.3302 145.2927  2.13103598111532
COSMOS 2477 [GLONASS-M] 
1 37868U 11064B   26062.25639741  .00000024  00000+0  00000+0 0  9991
2 37868  65.2151  76.5253 0022241 242.8811 195.4983  2.13102695111505
COSMOS 2475 [GLONASS-M] 
1 37869U 11064C   26063.83752270  .00000010  00000+0  00000+0 0  9995
2 37869  65.2230  76.4922 0028035 254.5042 272.4281  2.13101500111544
COSMOS 2485 [GLONASS-M] 
1 39155U 13019A   26063.73454973  .00000012  00000+0  00000+0 0  9997
2 39155  65.3600  77.1092 0025487 236.8545 122.9425  2.13102927100058
COSMOS 2492 [GLONASS-M] 
1 39620U 14012A   26063.22414481 -.00000051  00000+0  00000+0 0  9996
2 39620  65.3578 317.5055 0013217 325.9773  33.9986  2.13103085 93005
COSMOS 2500 [GLONASS-M] 
1 40001U 14032A   26062.45675065 -.00000048  00000+0  00000+0 0  9990
2 40001  65.2935 317.2872 0005202 202.8793 157.1573  2.13105742 91203
COSMOS 2501 [GLONASS-K] 
1 40315U 14075A   26060.84023701 -.00000015  00000+0  00000+0 0  9994
2 40315  63.6170 194.0851 0020735 205.7160 154.1408  2.13101099 87569
COSMOS 2514 [GLONASS-M] 
1 41330U 16008A   26063.64023447 -.00000052  00000+0  00000+0 0  9999
2 41330  65.0825 316.5971 0009131 209.2721 150.7376  2.13102631 78393
COSMOS 2522 [GLONASS-M] 
1 42939U 17055A   26060.66254924 -.00000014  00000+0  00000+0 0  9991
2 42939  64.0792 195.5407 0007123 226.6423 133.2575  2.13101627 65680
COSMOS 2527 [GLONASS-M] 
1 43508U 18053A   26061.09309953  .00000036  00000+0  00000+0 0  9997
2 43508  65.5168  77.4788 0009594 245.0851 114.8694  2.13101983 59999
